TIANMU-1 07             
1 57399U 23101A   26065.57454230  .00008352  00000+0  29795-3 0  9991
2 57399  97.2728 118.5929 0004609 142.4105 217.7458 15.29118809145964
STARLINK-32356          
1 60921U 24154U   26068.86781728  .00000447  00000+0  27208-4 0  9990
2 60921  53.1589 282.9086 0001380  99.4780 260.6377 15.30196309 86377
